     2.100          NAVIGATION                              RINEX VERSION / TYPE
fic2rin                                 11/25/2012 00:14:54 PGM / RUN BY / DATE
                                                            END OF HEADER
21 12 11 24 19 59 44.0 -.264266505837D-03 -.238742359215D-11  .000000000000D+00
     .400000000000D+01 -.387812500000D+02  .524093259159D-08  .308042383403D+01
    -.213645398617D-05  .194839140167D-01  .841915607452D-05  .515376899910D+04
     .590384000000D+06  .409781932831D-07  .191882358110D+01 -.288709998131D-06
     .931054435823D+00  .201468750000D+03 -.220217527248D+01 -.801604818630D-08
    -.370015412627D-09  .100000000000D+01  .171500000000D+04  .000000000000D+00
     .240000000000D+01  .000000000000D+00 -.111758708954D-07  .400000000000D+01
     .588456000000D+06  .400000000000D+01
18 12 11 24 21 59 28.0  .226219650358D-03  .181898940355D-11  .000000000000D+00
     .300000000000D+01  .810625000000D+02  .500056543648D-08  .301460320123D+01
     .411272048950D-05  .136144447606D-01  .100582838058D-04  .515375357819D+04
     .597568000000D+06  .484287738800D-07  .296790335830D+01 -.234693288803D-06
     .928806284761D+00  .165437500000D+03 -.213645468572D+01 -.799283293357D-08
     .114290474943D-10  .100000000000D+01  .171500000000D+04  .000000000000D+00
     .240000000000D+01  .000000000000D+00 -.107102096081D-07  .300000000000D+01
     .590406000000D+06  .400000000000D+01
 2 12 11 24 21 59 44.0  .409855507314D-03  .102318153949D-11  .000000000000D+00
     .100000000000D+01 -.295312500000D+02  .531343561164D-08  .106010039698D+00
    -.147148966789D-05  .116199248005D-01  .820681452751D-05  .515379062462D+04
     .597584000000D+06  .134110450745D-06  .189727566677D+01  .117346644402D-06
     .938247677165D+00  .211031250000D+03 -.271937382781D+01 -.848178187169D-08
    -.428589281035D-09  .100000000000D+01  .171500000000D+04  .000000000000D+00
     .240000000000D+01  .000000000000D+00 -.176951289177D-07  .100000000000D+01
     .590406000000D+06  .400000000000D+01
15 12 11 24 21 59 44.0 -.100481789559D-03 -.102318153949D-11  .000000000000D+00
     .170000000000D+02  .608750000000D+02  .527486257634D-08  .903127800749D+00
     .327639281750D-05  .498157623224D-02  .203214585781D-05  .515367132187D+04
     .597584000000D+06  .186264514923D-07 -.229844140441D+01  .298023223877D-07
     .943247103148D+00  .325875000000D+03  .625975755774D-01 -.871964892266D-08
     .678599694973D-11  .100000000000D+01  .171500000000D+04  .000000000000D+00
     .240000000000D+01  .000000000000D+00 -.102445483208D-07  .170000000000D+02
     .590406000000D+06  .400000000000D+01
21 12 11 24 21 59 44.0 -.264283735305D-03 -.238742359215D-11  .000000000000D+00
     .310000000000D+02 -.397187500000D+02  .520021660989D-08 -.215265204886D+01
    -.228546559811D-05  .194845312508D-01  .778958201408D-05  .515376766205D+04
     .597584000000D+06  .216066837311D-06  .191876460210D+01 -.117346644402D-06
     .931052355553D+00  .206406250000D+03 -.220215599122D+01 -.807247910830D-08
    -.191793703263D-09  .100000000000D+01  .171500000000D+04  .000000000000D+00
     .240000000000D+01  .000000000000D+00 -.111758708954D-07  .310000000000D+02
     .590406000000D+06  .400000000000D+01
 1 12 11 24 22  0  0.0  .284112524241D-03  .193267624127D-11  .000000000000D+00
     .430000000000D+02 -.265000000000D+02  .468090926437D-08 -.897191207501D+00
    -.137463212013D-05  .143636669964D-02  .836327672005D-05  .515371005058D+04
     .597600000000D+06  .353902578354D-07  .191491628637D+01  .167638063431D-07
     .959733674954D+00  .217875000000D+03  .526786520419D+00 -.803033449566D-08
    -.362157942475D-09  .100000000000D+01  .171500000000D+04  .000000000000D+00
     .240000000000D+01  .000000000000D+00  .838190317154D-08  .430000000000D+02
     .590406000000D+06  .400000000000D+01
 3 12 11 24 22  0  0.0  .132935587317D-03  .511590769747D-11  .000000000000D+00
     .250000000000D+02  .182187500000D+02  .546915638374D-08  .295371596853D+00
     .959262251854D-06  .158697278239D-01  .595115125179D-05  .515375256729D+04
     .597600000000D+06 -.232830643654D-06  .730062150362D+00  .745058059692D-07
     .932726255678D+00  .252375000000D+03  .125556559215D+01 -.878286584162D-08
     .299298181256D-09  .100000000000D+01  .171500000000D+04  .000000000000D+00
     .240000000000D+01  .000000000000D+00 -.465661287308D-08  .250000000000D+02
     .590406000000D+06  .400000000000D+01
 4 12 11 24 22  0  0.0  .559422187507D-04  .111413100967D-10  .000000000000D+00
     .480000000000D+02 -.281250000000D+02  .515378610445D-08 -.287890134463D+01
    -.171735882759D-05  .104135243455D-01  .867061316967D-05  .515369848824D+04
     .597600000000D+06  .132247805595D-06  .191393651308D+01 -.201165676117D-06
     .937303621018D+00  .198875000000D+03  .937231131964D+00 -.815355391396D-08
    -.395730769489D-09  .100000000000D+01  .171500000000D+04  .000000000000D+00
     .240000000000D+01  .000000000000D+00 -.651925802231D-08  .480000000000D+02
     .590406000000D+06  .400000000000D+01
 5 12 11 24 22  0  0.0 -.368724577129D-03 -.238742359215D-11  .000000000000D+00
     .890000000000D+02  .928437500000D+02  .468912389226D-08  .221849776778D+01
     .486522912979D-05  .309030560311D-02  .107213854790D-04  .515380041885D+04
     .597600000000D+06 -.689178705215D-07  .296139943079D+01  .447034835815D-07
     .950163083478D+00  .167687500000D+03  .277247946570D+00 -.803462038848D-08
     .596453416107D-10  .100000000000D+01  .171500000000D+04  .000000000000D+00
     .240000000000D+01  .000000000000D+00 -.102445483208D-07  .890000000000D+02
     .590406000000D+06  .400000000000D+01
 6 12 11 24 22  0  0.0  .446161720902D-03 -.122781784739D-10  .000000000000D+00
     .420000000000D+02  .154687500000D+02  .526593363299D-08  .218953660532D+01
     .752508640289D-06  .742802850436D-02  .540539622307D-05  .515368236732D+04
     .597600000000D+06  .912696123123D-07  .808110522487D+00  .137835741043D-06
     .939413107927D+00  .262000000000D+03 -.412858243512D+00 -.840927885165D-08
     .258939357292D-09  .100000000000D+01  .171500000000D+04  .000000000000D+00
     .240000000000D+01  .000000000000D+00 -.512227416039D-08  .420000000000D+02
     .590406000000D+06  .400000000000D+01
 7 12 11 24 22  0  0.0  .149418134242D-03  .443378667114D-11  .000000000000D+00
     .660000000000D+02 -.906250000000D+02  .410588531232D-08 -.125889908359D+01
    -.481121242046D-05  .606035836972D-02  .635907053947D-05  .515371669006D+04
     .597600000000D+06  .391155481339D-07 -.120748848207D+01 -.117346644402D-06
     .975628670484D+00  .265000000000D+03 -.293000361130D+01 -.794283085079D-08
    -.313584490624D-09  .100000000000D+01  .171500000000D+04  .000000000000D+00
     .240000000000D+01  .000000000000D+00 -.111758708954D-07  .660000000000D+02
     .590406000000D+06  .400000000000D+01
 8 12 11 24 22  0  0.0  .303098931909D-05  .227373675443D-12  .000000000000D+00
     .690000000000D+02 -.988125000000D+02  .350871758074D-08 -.187332624221D+01
    -.529550015926D-05  .127530315658D-01  .784732401371D-05  .515363459969D+04
     .597600000000D+06  .372529029846D-07 -.112020757104D+01 -.145286321640D-06
     .998114578633D+00  .245093750000D+03 -.289615045225D+01 -.762710341376D-08
    -.190007914592D-09  .100000000000D+01  .171500000000D+04  .000000000000D+00
     .340000000000D+01  .000000000000D+00 -.419095158577D-08  .690000000000D+02
     .590406000000D+06  .400000000000D+01
 9 12 11 24 22  0  0.0  .202020630240D-03  .261479726760D-11  .000000000000D+00
     .400000000000D+02 -.989062500000D+02  .398123726308D-08 -.173583742533D+01
    -.492483377457D-05  .170397004113D-01  .624917447567D-05  .515284914589D+04
     .597600000000D+06  .150874257088D-06 -.123194129089D+01  .417232513428D-06
     .984300875191D+00  .269062500000D+03  .163274610323D+01 -.786711341114D-08
    -.433589489314D-09  .100000000000D+01  .171500000000D+04  .000000000000D+00
     .340000000000D+01  .000000000000D+00 -.558793544769D-08  .400000000000D+02
     .590406000000D+06  .400000000000D+01
10 12 11 24 22  0  0.0 -.596866011620D-04 -.136424205266D-11  .000000000000D+00
     .770000000000D+02  .961875000000D+02  .469769567788D-08  .253527344194D+01
     .486522912979D-05  .120142102242D-01  .104513019323D-04  .515374769020D+04
     .597600000000D+06 -.502914190292D-07  .298189599271D+01 -.206753611565D-06
     .945026149047D+00  .168687500000D+03  .775755609518D+00 -.791175812791D-08
     .892894335490D-10  .100000000000D+01  .171500000000D+04  .000000000000D+00
     .240000000000D+01  .000000000000D+00 -.279396772385D-08  .770000000000D+02
     .590406000000D+06  .400000000000D+01
11 12 11 24 22  0  0.0 -.326585955918D-03 -.386535248253D-11  .000000000000D+00
     .340000000000D+02 -.312812500000D+02  .655313010703D-08 -.107269739438D+01
    -.135228037834D-05  .137687813258D-01  .587105751038D-05  .515367543411D+04
     .597600000000D+06  .670552253723D-07  .163146833645D+01  .335276126862D-06
     .887970904444D+00  .226562500000D+03  .112448557945D+01 -.910537927559D-08
    -.269654089318D-09  .100000000000D+01  .171500000000D+04  .000000000000D+00
     .240000000000D+01  .000000000000D+00 -.116415321827D-07  .340000000000D+02
     .590406000000D+06  .400000000000D+01
12 12 11 24 22  0  0.0  .103389378637D-03  .204636307899D-11  .000000000000D+00
     .770000000000D+02 -.254062500000D+02  .373122684915D-08 -.156022754535D+01
    -.122003257275D-05  .404137093574D-02  .110082328320D-04  .515367384911D+04
     .597600000000D+06 -.242143869400D-07 -.150132585236D+00 -.670552253723D-07
     .982353740005D+00  .179500000000D+03  .142881734181D+00 -.753817113794D-08
     .388230457071D-09  .100000000000D+01  .171500000000D+04  .000000000000D+00
     .240000000000D+01  .000000000000D+00 -.121071934700D-07  .770000000000D+02
     .590406000000D+06  .400000000000D+01
